OBJECT_NAME,OBJECT_ID,EPOCH,MEAN_MOTION,ECCENTRICITY,INCLINATION,RA_OF_ASC_NODE,ARG_OF_PERICENTER,MEAN_ANOMALY,EPHEMERIS_TYPE,CLASSIFICATION_TYPE,NORAD_CAT_ID,ELEMENT_SET_NO,REV_AT_EPOCH,BSTAR,MEAN_MOTION_DOT,MEAN_MOTION_DDOT
STARLINK-3871,2022-049AX,2026-06-05T19:28:48.456480,15.08838748,.0003087,53.1904,8.4976,71.0355,289.0972,0,U,52496,999,22576,.20362388E-4,.35E-6,0
STARLINK-3884,2022-049AY,2026-06-05T20:23:35.710368,15.08976785,.00027109,53.1830,13.3151,150.1434,209.9713,0,U,52497,999,22570,.11608441E-2,.18305E-3,0
STARLINK-3925,2022-049AZ,2026-06-06T02:09:34.319520,15.08837785,.0001373,53.1751,2.2393,91.5676,268.5473,0,U,52498,999,22587,.85183812E-4,.1068E-4,0
STARLINK-3894,2022-049BA,2026-06-06T06:00:02.000160,15.56261093,.00011265,53.2208,6.8356,94.9062,204.5886,0,U,52499,999,570,.15511606E-1,.1219053E-1,0
STARLINK-3866,2022-049BB,2026-06-05T19:42:43.350048,15.08855428,.00024284,53.1865,3.4519,81.7597,278.3671,0,U,52500,999,22583,.18005629E-3,.258E-4,0
STARLINK-3907,2022-049BC,2026-06-05T19:46:41.149632,15.08837042,.0004282,53.1871,13.2390,43.8795,316.2536,0,U,52501,999,22570,.41933E-4,.378E-5,0
STARLINK-3912,2022-049BD,2026-06-05T21:12:49.583808,15.08849831,.00012256,53.1739,3.1964,107.8271,252.2855,0,U,52502,999,22584,.27594449E-4,.151E-5,0
STARLINK-3861,2022-049BE,2026-06-05T20:56:55.438368,15.08877750,.0001013,53.1731,3.1028,73.8008,286.3095,0,U,52503,999,22584,-.4573E-3,-.7566E-4,0
STARLINK-3958,2022-051C,2026-06-06T01:47:02.869728,15.08843657,.00011601,53.1753,92.3107,105.2198,254.8922,0,U,52535,999,22478,-.11778102E-3,-.2162E-4,0
STARLINK-3964,2022-051D,2026-06-05T12:58:40.968480,15.08792172,.00015172,53.1758,94.7130,113.9125,246.2026,0,U,52536,999,22470,.57240097E-3,.8822E-4,0
STARLINK-3897,2022-051E,2026-06-06T02:45:18.512640,15.08837021,.00012499,53.1747,91.9390,60.8666,299.2450,0,U,52537,999,22479,.20426455E-4,.37E-6,0
STARLINK-3933,2022-051F,2026-06-05T12:42:47.446848,15.08801277,.00016173,53.1775,94.7638,119.6608,240.4545,0,U,52538,999,22470,.4100172E-3,.6237E-4,0
STARLINK-3757,2022-051G,2026-06-05T12:48:04.458816,15.08831953,.00013242,53.1769,94.7490,98.1511,261.9630,0,U,52539,999,22470,.52204877E-4,.543E-5,0
STARLINK-3940,2022-051H,2026-06-05T12:32:10.801536,15.08829870,.00012073,53.1759,94.8351,75.3680,284.7446,0,U,52540,999,22470,.52671579E-4,.55E-5,0
STARLINK-3845,2022-051J,2026-06-05T13:16:33.650400,15.08826766,.00013772,53.1780,99.6563,101.8827,258.2319,0,U,52541,999,22463,.28900939E-4,.172E-5,0
STARLINK-3937,2022-051K,2026-06-06T02:40:02.747424,15.08832014,.00014418,53.1770,92.1530,92.1234,267.9923,0,U,52542,999,22479,.27365084E-4,.147E-5,0
STARLINK-3926,2022-051L,2026-06-06T02:55:56.266464,15.08842021,.0001346,53.1749,92.0988,89.8961,270.2185,0,U,52543,999,22479,-.1870952E-4,-.586E-5,0
STARLINK-3944,2022-051M,2026-06-05T13:05:58.159392,15.08825528,.00014797,53.1774,99.7034,110.8633,249.2517,0,U,52544,999,22463,-.7706643E-4,-.1514E-4,0
STARLINK-3948,2022-051P,2026-06-06T01:58:58.957248,15.08841029,.00013027,53.1762,92.0466,79.6792,280.4346,0,U,52546,999,22479,.46999722E-4,.46E-5,0
STARLINK-3931,2022-051R,2026-06-06T02:08:14.522208,15.08840633,.0001246,53.1759,92.2503,90.3496,269.7638,0,U,52548,999,22479,.4398027E-4,.412E-5,0
STARLINK-3935,2022-051S,2026-06-06T02:34:49.587168,15.08762740,.00007207,53.1802,92.1761,94.1160,265.9914,0,U,52549,999,22479,-.62434752E-3,-.10189E-3,0
STARLINK-3965,2022-051T,2026-06-05T13:35:45.611232,15.08834933,.00013126,53.1783,94.5965,95.6431,264.4710,0,U,52550,999,22471,.22511127E-4,.7E-6,0
STARLINK-3969,2022-051U,2026-06-06T02:29:26.910816,15.08819069,.00014139,53.1770,92.1862,94.1640,265.9513,0,U,52551,999,22479,.21036102E-3,.306E-4,0
STARLINK-3966,2022-051V,2026-06-06T02:24:10.137312,15.08836012,.00011596,53.1771,92.3519,80.8047,279.3076,0,U,52552,999,22479,.16903503E-4,-.19E-6,0
STARLINK-3858,2022-051W,2026-06-06T06:00:02.000160,15.83588578,.00005581,53.2201,79.9605,190.1558,67.0519,0,U,52553,999,591,.4803394E-2,.1212741E-1,0
STARLINK-3770,2022-051X,2026-06-06T03:19:07.806720,15.08835520,.00007933,53.1757,97.0291,96.3752,263.7330,0,U,52554,999,22472,-.7202867E-5,-.402E-5,0
STARLINK-3943,2022-051AA,2026-06-06T01:57:38.796192,15.08840298,.00012547,53.1773,92.2811,84.4321,275.6813,0,U,52557,999,22479,.84334364E-4,.1055E-4,0
STARLINK-3953,2022-051AC,2026-06-06T02:14:54.066048,15.08800932,.0001808,53.1772,82.4118,89.4967,270.6232,0,U,52559,999,22492,.70280503E-3,.10903E-3,0
STARLINK-3956,2022-051AD,2026-06-06T01:53:39.361920,15.08844222,.00011575,53.1756,82.2930,83.4811,276.6313,0,U,52560,999,22492,.64585573E-4,.74E-5,0
STARLINK-3955,2022-051AE,2026-06-05T12:44:46.328064,15.08838939,.00013004,53.1771,99.7574,89.8249,270.2892,0,U,52561,999,22463,.10917786E-3,.145E-4,0
