STARLINK-3871           
1 52496U 22049AX  26156.81167195  .00000035  00000+0  20362-4 0  9995
2 52496  53.1904   8.4976 0003087  71.0355 289.0972 15.08838748225764
STARLINK-3884           
1 52497U 22049AY  26156.84971887  .00018305  00000+0  11608-2 0  9990
2 52497  53.1830  13.3151 0002710 150.1434 209.9713 15.08976785225704
STARLINK-3925           
1 52498U 22049AZ  26157.08998055  .00001068  00000+0  85184-4 0  9994
2 52498  53.1751   2.2393 0001373  91.5676 268.5473 15.08837785225870
STARLINK-3894           
1 52499U 22049BA  26157.25002315  .01219053  00000+0  15512-1 0  9990
2 52499  53.2208   6.8356 0001126  94.9062 204.5886 15.56261093  5702
STARLINK-3866           
1 52500U 22049BB  26156.82133507  .00002580  00000+0  18006-3 0  9990
2 52500  53.1865   3.4519 0002428  81.7597 278.3671 15.08855428225837
STARLINK-3907           
1 52501U 22049BC  26156.82408738  .00000378  00000+0  41933-4 0  9991
2 52501  53.1871  13.2390 0004282  43.8795 316.2536 15.08837042225700
STARLINK-3912           
1 52502U 22049BD  26156.88390722  .00000151  00000+0  27594-4 0  9997
2 52502  53.1739   3.1964 0001225 107.8271 252.2855 15.08849831225840
STARLINK-3861           
1 52503U 22049BE  26156.87286387 -.00007566  00000+0 -45730-3 0  9998
2 52503  53.1731   3.1028 0001013  73.8008 286.3095 15.08877750225844
STARLINK-3958           
1 52535U 22051C   26157.07433877 -.00002162  00000+0 -11778-3 0  9999
2 52535  53.1753  92.3107 0001160 105.2198 254.8922 15.08843657224784
STARLINK-3964           
1 52536U 22051D   26156.54075195  .00008822  00000+0  57240-3 0  9997
2 52536  53.1758  94.7130 0001517 113.9125 246.2026 15.08792172224701
STARLINK-3897           
1 52537U 22051E   26157.11479760  .00000037  00000+0  20426-4 0  9995
2 52537  53.1747  91.9390 0001249  60.8666 299.2450 15.08837021224790
STARLINK-3933           
1 52538U 22051F   26156.52971582  .00006237  00000+0  41002-3 0  9999
2 52538  53.1775  94.7638 0001617 119.6608 240.4545 15.08801277224704
STARLINK-3757           
1 52539U 22051G   26156.53338494  .00000543  00000+0  52205-4 0  9992
2 52539  53.1769  94.7490 0001324  98.1511 261.9630 15.08831953224700
STARLINK-3940           
1 52540U 22051H   26156.52234724  .00000550  00000+0  52672-4 0  9990
2 52540  53.1759  94.8351 0001207  75.3680 284.7446 15.08829870224705
STARLINK-3845           
1 52541U 22051J   26156.55316725  .00000172  00000+0  28901-4 0  9994
2 52541  53.1780  99.6563 0001377 101.8827 258.2319 15.08826766224632
STARLINK-3937           
1 52542U 22051K   26157.11114291  .00000147  00000+0  27365-4 0  9997
2 52542  53.1770  92.1530 0001441  92.1234 267.9923 15.08832014224798
STARLINK-3926           
1 52543U 22051L   26157.12217901 -.00000586  00000+0 -18710-4 0  9994
2 52543  53.1749  92.0988 0001346  89.8961 270.2185 15.08842021224791
STARLINK-3944           
1 52544U 22051M   26156.54581203 -.00001514  00000+0 -77066-4 0  9990
2 52544  53.1774  99.7034 0001479 110.8633 249.2517 15.08825528224635
STARLINK-3948           
1 52546U 22051P   26157.08262682  .00000460  00000+0  47000-4 0  9991
2 52546  53.1762  92.0466 0001302  79.6792 280.4346 15.08841029224790
STARLINK-3931           
1 52548U 22051R   26157.08905697  .00000412  00000+0  43980-4 0  9993
2 52548  53.1759  92.2503 0001246  90.3496 269.7638 15.08840633224794
STARLINK-3935           
1 52549U 22051S   26157.10751837 -.00010189  00000+0 -62435-3 0  9991
2 52549  53.1802  92.1761 0000720  94.1160 265.9914 15.08762740224792
STARLINK-3965           
1 52550U 22051T   26156.56650013  .00000070  00000+0  22511-4 0  9994
2 52550  53.1783  94.5965 0001312  95.6431 264.4710 15.08834933224713
STARLINK-3969           
1 52551U 22051U   26157.10378369  .00003060  00000+0  21036-3 0  9999
2 52551  53.1770  92.1862 0001413  94.1640 265.9513 15.08819069224796
STARLINK-3966           
1 52552U 22051V   26157.10011733 -.00000019  00000+0  16904-4 0  9990
2 52552  53.1771  92.3519 0001159  80.8047 279.3076 15.08836012224799
STARLINK-3858           
1 52553U 22051W   26157.25002315  .01212741  00000+0  48034-2 0  9997
2 52553  53.2201  79.9605 0000558 190.1558  67.0519 15.83588578  5919
STARLINK-3770           
1 52554U 22051X   26157.13828480 -.00000402  00000+0 -72029-5 0  9998
2 52554  53.1757  97.0291 0000793  96.3752 263.7330 15.08835520224728
STARLINK-3943           
1 52557U 22051AA  26157.08169903  .00001055  00000+0  84334-4 0  9997
2 52557  53.1773  92.2811 0001254  84.4321 275.6813 15.08840298224790
STARLINK-3953           
1 52559U 22051AC  26157.09368132  .00010903  00000+0  70281-3 0  9992
2 52559  53.1772  82.4118 0001808  89.4967 270.6232 15.08800932224924
STARLINK-3956           
1 52560U 22051AD  26157.07892780  .00000740  00000+0  64586-4 0  9993
2 52560  53.1756  82.2930 0001157  83.4811 276.6313 15.08844222224923
STARLINK-3955           
1 52561U 22051AE  26156.53109176  .00001450  00000+0  10918-3 0  9992
2 52561  53.1771  99.7574 0001300  89.8249 270.2892 15.08838939224631
